start=new Date('2023-03-19T00:00:00.000Z').valueOf();
sats=[{"MEAN_ANOMALY":"271.8209","TLE_LINE1":"1 47991U 21024Q   23077.53949307  .00014774  00000-0  10081-2 0  9993","SEMIMAJOR_AXIS":"6925.289","GP_ID":"228370889","CENTER_NAME":"EARTH","COUNTRY_CODE":"US","MEAN_ELEMENT_THEORY":"SGP4","OBJECT_ID":"2021-024Q","OBJECT_TYPE":"PAYLOAD","SITE":"AFETR","ECCENTRICITY":"0.00013410","MEAN_MOTION":"15.06419400","DECAY_DATE":null,"MEAN_MOTION_DDOT":"0.0000000000000","INCLINATION":"53.0516","CLASSIFICATION_TYPE":"U","EPOCH":"2023-03-18T12:56:52.201248","FILE":"3864066","RA_OF_ASC_NODE":"102.0347","ARG_OF_PERICENTER":"88.2934","TLE_LINE2":"2 47991  53.0516 102.0347 0001341  88.2934 271.8209 15.06419400111217","NORAD_CAT_ID":"47991","REV_AT_EPOCH":"11121","TIME_SYSTEM":"UTC","PERIAPSIS":"546.225","APOAPSIS":"548.083","OBJECT_NAME":"STARLINK-2279","MEAN_MOTION_DOT":"0.00014774","REF_FRAME":"TEME","PERIOD":"95.591","BSTAR":"0.00100810000000","EPHEMERIS_TYPE":"0","ELEMENT_SET_NO":"999","LAUNCH_DATE":"2021-03-24","RCS_SIZE":"LARGE"},{"ECCENTRICITY":"0.00014580","SITE":"AFETR","OBJECT_TYPE":"PAYLOAD","OBJECT_ID":"2021-024R","MEAN_ELEMENT_THEORY":"SGP4","COUNTRY_CODE":"US","GP_ID":"228402041","CENTER_NAME":"EARTH","SEMIMAJOR_AXIS":"6925.261","TLE_LINE1":"1 47992U 21024R   23077.75926661  .00015324  00000-0  10446-2 0  9993","MEAN_ANOMALY":"264.4272","ARG_OF_PERICENTER":"95.6883","RA_OF_ASC_NODE":"96.1235","FILE":"3864479","EPOCH":"2023-03-18T18:13:20.635104","CLASSIFICATION_TYPE":"U","INCLINATION":"53.0518","MEAN_MOTION_DDOT":"0.0000000000000","DECAY_DATE":null,"MEAN_MOTION":"15.06428536","MEAN_MOTION_DOT":"0.00015324","APOAPSIS":"548.136","OBJECT_NAME":"STARLINK-2229","PERIAPSIS":"546.116","TIME_SYSTEM":"UTC","NORAD_CAT_ID":"47992","REV_AT_EPOCH":"11180","TLE_LINE2":"2 47992  53.0518  96.1235 0001458  95.6883 264.4272 15.06428536111806","RCS_SIZE":"LARGE","LAUNCH_DATE":"2021-03-24","ELEMENT_SET_NO":"999","EPHEMERIS_TYPE":"0","BSTAR":"0.00104460000000","PERIOD":"95.590","REF_FRAME":"TEME"},{"TLE_LINE2":"2 47993  53.0526 137.4925 0001457  90.7460 269.3696 15.06421877111240","REV_AT_EPOCH":"11124","NORAD_CAT_ID":"47993","MEAN_MOTION_DOT":"0.00023486","OBJECT_NAME":"STARLINK-2273","APOAPSIS":"548.156","TIME_SYSTEM":"UTC","PERIAPSIS":"546.137","PERIOD":"95.591","REF_FRAME":"TEME","ELEMENT_SET_NO":"999","BSTAR":"0.00158940000000","EPHEMERIS_TYPE":"0","RCS_SIZE":"LARGE","LAUNCH_DATE":"2021-03-24","MEAN_ELEMENT_THEORY":"SGP4","TLE_LINE1":"1 47993U 21024S   23077.43492160  .00023486  00000-0  15894-2 0  9991","MEAN_ANOMALY":"269.3696","CENTER_NAME":"EARTH","GP_ID":"228401789","COUNTRY_CODE":"US","SEMIMAJOR_AXIS":"6925.282","ECCENTRICITY":"0.00014570","OBJECT_ID":"2021-024S","SITE":"AFETR","OBJECT_TYPE":"PAYLOAD","MEAN_MOTION_DDOT":"0.0000000000000","DECAY_DATE":null,"INCLINATION":"53.0526","MEAN_MOTION":"15.06421877","RA_OF_ASC_NODE":"137.4925","ARG_OF_PERICENTER":"90.7460","CLASSIFICATION_TYPE":"U","FILE":"3864479","EPOCH":"2023-03-18T10:26:17.226240"},{"LAUNCH_DATE":"2021-03-24","RCS_SIZE":"LARGE","PERIOD":"95.592","REF_FRAME":"TEME","ELEMENT_SET_NO":"999","EPHEMERIS_TYPE":"0","BSTAR":"0.00069425000000","TIME_SYSTEM":"UTC","PERIAPSIS":"546.893","MEAN_MOTION_DOT":"0.00010076","APOAPSIS":"547.508","OBJECT_NAME":"STARLINK-2290","TLE_LINE2":"2 47994  53.0529 150.3903 0000444 102.3803 257.7236 15.06404339111043","REV_AT_EPOCH":"11104","NORAD_CAT_ID":"47994","CLASSIFICATION_TYPE":"U","EPOCH":"2023-03-18T21:41:01.096224","FILE":"3864479","RA_OF_ASC_NODE":"150.3903","ARG_OF_PERICENTER":"102.3803","MEAN_MOTION":"15.06404339","MEAN_MOTION_DDOT":"0.0000000000000","DECAY_DATE":null,"INCLINATION":"53.0529","OBJECT_ID":"2021-024T","SITE":"AFETR","OBJECT_TYPE":"PAYLOAD","ECCENTRICITY":"0.00004440","MEAN_ANOMALY":"257.7236","TLE_LINE1":"1 47994U 21024T   23077.90348491  .00010076  00000-0  69425-3 0  9992","GP_ID":"228402533","COUNTRY_CODE":"US","CENTER_NAME":"EARTH","SEMIMAJOR_AXIS":"6925.335","MEAN_ELEMENT_THEORY":"SGP4"},{"APOAPSIS":"547.967","OBJECT_NAME":"STARLINK-2309","MEAN_MOTION_DOT":"0.00019329","PERIAPSIS":"546.328","TIME_SYSTEM":"UTC","NORAD_CAT_ID":"47995","REV_AT_EPOCH":"11149","TLE_LINE2":"2 47995  53.0537 117.1608 0001183  92.7557 267.3567 15.06421588111493","RCS_SIZE":"LARGE","LAUNCH_DATE":"2021-03-24","EPHEMERIS_TYPE":"0","BSTAR":"0.00131220000000","ELEMENT_SET_NO":"999","REF_FRAME":"TEME","PERIOD":"95.591","ECCENTRICITY":"0.00011830","OBJECT_TYPE":"PAYLOAD","SITE":"AFETR","OBJECT_ID":"2021-024U","MEAN_ELEMENT_THEORY":"SGP4","SEMIMAJOR_AXIS":"6925.282","COUNTRY_CODE":"US","GP_ID":"228402788","CENTER_NAME":"EARTH","MEAN_ANOMALY":"267.3567","TLE_LINE1":"1 47995U 21024U   23077.58054257  .00019329  00000-0  13122-2 0  9993","ARG_OF_PERICENTER":"92.7557","RA_OF_ASC_NODE":"117.1608","EPOCH":"2023-03-18T13:55:58.878048","FILE":"3864479","CLASSIFICATION_TYPE":"U","INCLINATION":"53.0537","MEAN_MOTION_DDOT":"0.0000000000000","DECAY_DATE":null,"MEAN_MOTION":"15.06421588"},{"EPHEMERIS_TYPE":"0","BSTAR":"0.00162460000000","ELEMENT_SET_NO":"999","REF_FRAME":"TEME","PERIOD":"95.591","RCS_SIZE":"LARGE","LAUNCH_DATE":"2021-03-24","REV_AT_EPOCH":"11264","NORAD_CAT_ID":"47996","TLE_LINE2":"2 47996  53.0541  40.7633 0001528  88.7963 271.3201 15.06420269112640","OBJECT_NAME":"STARLINK-2260","APOAPSIS":"548.210","MEAN_MOTION_DOT":"0.00024013","PERIAPSIS":"546.093","TIME_SYSTEM":"UTC","INCLINATION":"53.0541","MEAN_MOTION_DDOT":"0.0000000000000","DECAY_DATE":null,"MEAN_MOTION":"15.06420269","ARG_OF_PERICENTER":"88.7963","RA_OF_ASC_NODE":"40.7633","EPOCH":"2023-03-18T21:18:29.241216","FILE":"3864479","CLASSIFICATION_TYPE":"U","MEAN_ELEMENT_THEORY":"SGP4","SEMIMAJOR_AXIS":"6925.286","COUNTRY_CODE":"US","GP_ID":"228401541","CENTER_NAME":"EARTH","MEAN_ANOMALY":"271.3201","TLE_LINE1":"1 47996U 21024V   23077.88783844  .00024013  00000-0  16246-2 0  9994","ECCENTRICITY":"0.00015280","OBJECT_TYPE":"PAYLOAD","SITE":"AFETR","OBJECT_ID":"2021-024V"},{"TLE_LINE2":"2 47997  53.0539 151.3692 0001472  90.8893 269.2264 15.06430915111076","REV_AT_EPOCH":"11107","NORAD_CAT_ID":"47997","TIME_SYSTEM":"UTC","PERIAPSIS":"546.099","OBJECT_NAME":"STARLINK-2266","APOAPSIS":"548.138","MEAN_MOTION_DOT":"0.00020733","REF_FRAME":"TEME","PERIOD":"95.590","BSTAR":"0.00140550000000","EPHEMERIS_TYPE":"0","ELEMENT_SET_NO":"999","LAUNCH_DATE":"2021-03-24","RCS_SIZE":"LARGE","TLE_LINE1":"1 47997U 21024W   23077.68602171  .00020733  00000-0  14055-2 0  9997","MEAN_ANOMALY":"269.2264","SEMIMAJOR_AXIS":"6925.254","CENTER_NAME":"EARTH","GP_ID":"228402290","COUNTRY_CODE":"US","MEAN_ELEMENT_THEORY":"SGP4","OBJECT_ID":"2021-024W","OBJECT_TYPE":"PAYLOAD","SITE":"AFETR","ECCENTRICITY":"0.00014720","MEAN_MOTION":"15.06430915","MEAN_MOTION_DDOT":"0.0000000000000","DECAY_DATE":null,"INCLINATION":"53.0539","CLASSIFICATION_TYPE":"U","FILE":"3864479","EPOCH":"2023-03-18T16:27:52.275744","RA_OF_ASC_NODE":"151.3692","ARG_OF_PERICENTER":"90.8893"},{"OBJECT_ID":"2021-024X","OBJECT_TYPE":"PAYLOAD","SITE":"AFETR","ECCENTRICITY":"0.00014490","TLE_LINE1":"1 47998U 21024X   23077.42849323  .00012511  00000-0  85674-3 0  9993","MEAN_ANOMALY":"269.6563","SEMIMAJOR_AXIS":"6925.277","GP_ID":"228403034","CENTER_NAME":"EARTH","COUNTRY_CODE":"US","MEAN_ELEMENT_THEORY":"SGP4","CLASSIFICATION_TYPE":"U","FILE":"3864479","EPOCH":"2023-03-18T10:17:01.815072","RA_OF_ASC_NODE":"127.7634","ARG_OF_PERICENTER":"90.4592","MEAN_MOTION":"15.06423428","DECAY_DATE":null,"MEAN_MOTION_DDOT":"0.0000000000000","INCLINATION":"53.0515","TIME_SYSTEM":"UTC","PERIAPSIS":"546.138","APOAPSIS":"548.145","OBJECT_NAME":"STARLINK-2296","MEAN_MOTION_DOT":"0.00012511","TLE_LINE2":"2 47998  53.0515 127.7634 0001449  90.4592 269.6563 15.06423428111325","NORAD_CAT_ID":"47998","REV_AT_EPOCH":"11132","LAUNCH_DATE":"2021-03-24","RCS_SIZE":"LARGE","REF_FRAME":"TEME","PERIOD":"95.591","BSTAR":"0.00085674000000","EPHEMERIS_TYPE":"0","ELEMENT_SET_NO":"999"},{"PERIOD":"95.591","REF_FRAME":"TEME","ELEMENT_SET_NO":"999","BSTAR":"0.00059504000000","EPHEMERIS_TYPE":"0","LAUNCH_DATE":"2021-03-24","RCS_SIZE":"LARGE","TLE_LINE2":"2 47999  53.0544  95.9618 0001519  84.5077 275.6085 15.06414042111795","NORAD_CAT_ID":"47999","REV_AT_EPOCH":"11179","TIME_SYSTEM":"UTC","PERIAPSIS":"546.119","MEAN_MOTION_DOT":"0.00008596","APOAPSIS":"548.222","OBJECT_NAME":"STARLINK-2218","MEAN_MOTION":"15.06414042","MEAN_MOTION_DDOT":"0.0000000000000","DECAY_DATE":null,"INCLINATION":"53.0544","CLASSIFICATION_TYPE":"U","EPOCH":"2023-03-18T18:38:30.305760","FILE":"3864479","RA_OF_ASC_NODE":"95.9618","ARG_OF_PERICENTER":"84.5077","TLE_LINE1":"1 47999U 21024Y   23077.77673965  .00008596  00000-0  59504-3 0  9990","MEAN_ANOMALY":"275.6085","COUNTRY_CODE":"US","GP_ID":"228403289","CENTER_NAME":"EARTH","SEMIMAJOR_AXIS":"6925.306","MEAN_ELEMENT_THEORY":"SGP4","OBJECT_ID":"2021-024Y","SITE":"AFETR","OBJECT_TYPE":"PAYLOAD","ECCENTRICITY":"0.00015190"},{"MEAN_ELEMENT_THEORY":"SGP4","MEAN_ANOMALY":"259.5250","TLE_LINE1":"1 48000U 21024Z   23077.70721437  .00012784  00000-0  87509-3 0  9995","COUNTRY_CODE":"US","GP_ID":"228402042","CENTER_NAME":"EARTH","SEMIMAJOR_AXIS":"6925.288","ECCENTRICITY":"0.00014040","OBJECT_ID":"2021-024Z","SITE":"AFETR","OBJECT_TYPE":"PAYLOAD","DECAY_DATE":null,"MEAN_MOTION_DDOT":"0.0000000000000","INCLINATION":"53.0522","MEAN_MOTION":"15.06419718","RA_OF_ASC_NODE":"81.4730","ARG_OF_PERICENTER":"100.5897","CLASSIFICATION_TYPE":"U","FILE":"3864479","EPOCH":"2023-03-18T16:58:23.321568","TLE_LINE2":"2 48000  53.0522  81.4730 0001404 100.5897 259.5250 15.06419718112007","NORAD_CAT_ID":"48000","REV_AT_EPOCH":"11200","MEAN_MOTION_DOT":"0.00012784","APOAPSIS":"548.125","OBJECT_NAME":"STARLINK-2270","TIME_SYSTEM":"UTC","PERIAPSIS":"546.181","PERIOD":"95.591","REF_FRAME":"TEME","ELEMENT_SET_NO":"999","BSTAR":"0.00087509000000","EPHEMERIS_TYPE":"0","RCS_SIZE":"LARGE","LAUNCH_DATE":"2021-03-24"}];
